start=new Date('2022-11-20T00:00:00.000Z').valueOf();
sats=[{"MEAN_MOTION_DDOT":"0.0000000000000","MEAN_MOTION":"15.08843421","ARG_OF_PERICENTER":"46.3256","CLASSIFICATION_TYPE":"U","RA_OF_ASC_NODE":"33.5868","ELEMENT_SET_NO":"999","BSTAR":"0.00006259100000","NORAD_CAT_ID":"51997","APOAPSIS":"541.019","EPOCH":"2022-11-19T13:45:18.278208","TLE_LINE2":"2 51997  53.2189  33.5868 0001856  46.3256 313.7890 15.08843421 38828","MEAN_ANOMALY":"313.7890","COUNTRY_CODE":"US","DECAY_DATE":null,"OBJECT_ID":"2022-025AT","REV_AT_EPOCH":"3882","RCS_SIZE":"LARGE","MEAN_ELEMENT_THEORY":"SGP4","GP_ID":"218236679","CENTER_NAME":"EARTH","MEAN_MOTION_DOT":"0.00000708","SITE":"AFETR","TLE_LINE1":"1 51997U 22025AT  22323.57312822  .00000708  00000-0  62591-4 0  9996","FILE":"3663561","LAUNCH_DATE":"2022-03-09","SEMIMAJOR_AXIS":"6917.870","EPHEMERIS_TYPE":"0","PERIOD":"95.437","PERIAPSIS":"538.451","OBJECT_NAME":"STARLINK-3589","ECCENTRICITY":"0.00018560","REF_FRAME":"TEME","INCLINATION":"53.2189","TIME_SYSTEM":"UTC","OBJECT_TYPE":"PAYLOAD"},{"ELEMENT_SET_NO":"999","BSTAR":"0.00003339700000","NORAD_CAT_ID":"51998","EPOCH":"2022-11-19T14:22:24.423456","APOAPSIS":"541.082","TLE_LINE2":"2 51998  53.2202  33.4739 0001934  45.9000 314.2151 15.08840522 38847","MEAN_ANOMALY":"314.2151","COUNTRY_CODE":"US","OBJECT_ID":"2022-025AU","DECAY_DATE":null,"REV_AT_EPOCH":"3884","RCS_SIZE":"LARGE","GP_ID":"218237429","MEAN_ELEMENT_THEORY":"SGP4","MEAN_MOTION_DDOT":"0.0000000000000","MEAN_MOTION":"15.08840522","ARG_OF_PERICENTER":"45.9000","CLASSIFICATION_TYPE":"U","RA_OF_ASC_NODE":"33.4739","SEMIMAJOR_AXIS":"6917.879","EPHEMERIS_TYPE":"0","PERIOD":"95.438","PERIAPSIS":"538.406","OBJECT_NAME":"STARLINK-3618","ECCENTRICITY":"0.00019340","REF_FRAME":"TEME","INCLINATION":"53.2202","TIME_SYSTEM":"UTC","OBJECT_TYPE":"PAYLOAD","CENTER_NAME":"EARTH","MEAN_MOTION_DOT":"0.00000243","SITE":"AFETR","TLE_LINE1":"1 51998U 22025AU  22323.59889379  .00000243  00000-0  33397-4 0  9991","FILE":"3663561","LAUNCH_DATE":"2022-03-09"},{"TLE_LINE2":"2 51999  53.2187  33.3583 0002279  54.2492 305.8711 15.08804866 40355","NORAD_CAT_ID":"51999","BSTAR":"0.00049704000000","EPOCH":"2022-11-19T15:00:53.010720","APOAPSIS":"541.429","ELEMENT_SET_NO":"999","RCS_SIZE":"LARGE","GP_ID":"218209405","MEAN_ELEMENT_THEORY":"SGP4","OBJECT_ID":"2022-025AV","DECAY_DATE":null,"REV_AT_EPOCH":"4035","COUNTRY_CODE":"US","MEAN_ANOMALY":"305.8711","MEAN_MOTION_DDOT":"0.0000000000000","RA_OF_ASC_NODE":"33.3583","CLASSIFICATION_TYPE":"U","MEAN_MOTION":"15.08804866","ARG_OF_PERICENTER":"54.2492","OBJECT_NAME":"STARLINK-3667","PERIAPSIS":"538.276","PERIOD":"95.440","SEMIMAJOR_AXIS":"6917.988","EPHEMERIS_TYPE":"0","OBJECT_TYPE":"PAYLOAD","TIME_SYSTEM":"UTC","INCLINATION":"53.2187","ECCENTRICITY":"0.00022790","REF_FRAME":"TEME","SITE":"AFETR","MEAN_MOTION_DOT":"0.00007624","CENTER_NAME":"EARTH","LAUNCH_DATE":"2022-03-09","FILE":"3663357","TLE_LINE1":"1 51999U 22025AV  22323.62561355  .00007624  00000-0  49704-3 0  9995"},{"MEAN_MOTION_DDOT":"0.0000000000000","RA_OF_ASC_NODE":"33.5148","CLASSIFICATION_TYPE":"U","MEAN_MOTION":"15.08840511","ARG_OF_PERICENTER":"34.3830","TLE_LINE2":"2 52000  53.2188  33.5148 0002582  34.3830 325.7328 15.08840511 38844","BSTAR":"0.00022170000000","NORAD_CAT_ID":"52000","EPOCH":"2022-11-19T14:13:11.853120","APOAPSIS":"541.530","ELEMENT_SET_NO":"999","RCS_SIZE":"LARGE","MEAN_ELEMENT_THEORY":"SGP4","GP_ID":"218237927","OBJECT_ID":"2022-025AW","DECAY_DATE":null,"REV_AT_EPOCH":"3884","COUNTRY_CODE":"US","MEAN_ANOMALY":"325.7328","SITE":"AFETR","CENTER_NAME":"EARTH","MEAN_MOTION_DOT":"0.00003242","LAUNCH_DATE":"2022-03-09","FILE":"3663561","TLE_LINE1":"1 52000U 22025AW  22323.59249830  .00003242  00000-0  22170-3 0  9996","OBJECT_NAME":"STARLINK-3653","PERIAPSIS":"537.958","PERIOD":"95.438","SEMIMAJOR_AXIS":"6917.879","EPHEMERIS_TYPE":"0","OBJECT_TYPE":"PAYLOAD","TIME_SYSTEM":"UTC","INCLINATION":"53.2188","ECCENTRICITY":"0.00025820","REF_FRAME":"TEME"},{"MEAN_ANOMALY":"304.9283","COUNTRY_CODE":"US","REV_AT_EPOCH":"3882","OBJECT_ID":"2022-025AX","DECAY_DATE":null,"GP_ID":"218207159","MEAN_ELEMENT_THEORY":"SGP4","RCS_SIZE":"LARGE","ELEMENT_SET_NO":"999","APOAPSIS":"541.015","EPOCH":"2022-11-19T11:06:19.945440","NORAD_CAT_ID":"52001","BSTAR":"0.00013569000000","TLE_LINE2":"2 52001  53.2168  34.0976 0001854  55.1883 304.9283 15.08844256 38825","ARG_OF_PERICENTER":"55.1883","MEAN_MOTION":"15.08844256","CLASSIFICATION_TYPE":"U","RA_OF_ASC_NODE":"34.0976","MEAN_MOTION_DDOT":"0.0000000000000","REF_FRAME":"TEME","ECCENTRICITY":"0.00018540","INCLINATION":"53.2168","TIME_SYSTEM":"UTC","OBJECT_TYPE":"PAYLOAD","SEMIMAJOR_AXIS":"6917.867","EPHEMERIS_TYPE":"0","PERIOD":"95.437","PERIAPSIS":"538.450","OBJECT_NAME":"STARLINK-3659","TLE_LINE1":"1 52001U 22025AX  22323.46273085  .00001872  00000-0  13569-3 0  9991","FILE":"3663316","LAUNCH_DATE":"2022-03-09","CENTER_NAME":"EARTH","MEAN_MOTION_DOT":"0.00001872","SITE":"AFETR"},{"TIME_SYSTEM":"UTC","OBJECT_TYPE":"PAYLOAD","REF_FRAME":"TEME","ECCENTRICITY":"0.00018010","INCLINATION":"53.2185","PERIAPSIS":"538.464","OBJECT_NAME":"STARLINK-3668","EPHEMERIS_TYPE":"0","SEMIMAJOR_AXIS":"6917.845","PERIOD":"95.437","LAUNCH_DATE":"2022-03-09","TLE_LINE1":"1 52002U 22025AY  22323.26033535  .00004714  00000-0  31399-3 0  9993","FILE":"3663316","SITE":"AFETR","MEAN_MOTION_DOT":"0.00004714","CENTER_NAME":"EARTH","REV_AT_EPOCH":"3879","DECAY_DATE":null,"OBJECT_ID":"2022-025AY","GP_ID":"218205910","MEAN_ELEMENT_THEORY":"SGP4","RCS_SIZE":"LARGE","MEAN_ANOMALY":"309.6776","COUNTRY_CODE":"US","EPOCH":"2022-11-19T06:14:52.974240","APOAPSIS":"540.956","NORAD_CAT_ID":"52002","BSTAR":"0.00031399000000","TLE_LINE2":"2 52002  53.2185  34.9999 0001801  50.4375 309.6776 15.08851518 38799","ELEMENT_SET_NO":"999","CLASSIFICATION_TYPE":"U","RA_OF_ASC_NODE":"34.9999","ARG_OF_PERICENTER":"50.4375","MEAN_MOTION":"15.08851518","MEAN_MOTION_DDOT":"0.0000000000000"},{"SITE":"AFETR","MEAN_MOTION_DOT":"-0.00000636","CENTER_NAME":"EARTH","LAUNCH_DATE":"2022-03-09","TLE_LINE1":"1 52003U 22025AZ  22323.72033603 -.00000636  00000-0 -21856-4 0  9990","FILE":"3663561","PERIAPSIS":"538.581","OBJECT_NAME":"STARLINK-3654","SEMIMAJOR_AXIS":"6917.897","EPHEMERIS_TYPE":"0","PERIOD":"95.438","TIME_SYSTEM":"UTC","OBJECT_TYPE":"PAYLOAD","ECCENTRICITY":"0.00017070","REF_FRAME":"TEME","INCLINATION":"53.2194","MEAN_MOTION_DDOT":"0.0000000000000","CLASSIFICATION_TYPE":"U","RA_OF_ASC_NODE":"32.9293","MEAN_MOTION":"15.08834505","ARG_OF_PERICENTER":"48.7541","NORAD_CAT_ID":"52003","BSTAR":"-0.00002185600000","EPOCH":"2022-11-19T17:17:17.032992","APOAPSIS":"540.943","TLE_LINE2":"2 52003  53.2194  32.9293 0001707  48.7541 311.3598 15.08834505 38862","ELEMENT_SET_NO":"999","OBJECT_ID":"2022-025AZ","DECAY_DATE":null,"REV_AT_EPOCH":"3886","RCS_SIZE":"LARGE","MEAN_ELEMENT_THEORY":"SGP4","GP_ID":"218237672","MEAN_ANOMALY":"311.3598","COUNTRY_CODE":"US"},{"COUNTRY_CODE":"US","MEAN_ANOMALY":"329.1595","GP_ID":"218237934","MEAN_ELEMENT_THEORY":"SGP4","RCS_SIZE":"LARGE","REV_AT_EPOCH":"3997","OBJECT_ID":"2022-029A","DECAY_DATE":null,"ELEMENT_SET_NO":"999","TLE_LINE2":"2 52088  53.2179   3.4167 0002244  30.9546 329.1595 15.48991979 39976","EPOCH":"2022-11-19T14:27:49.830912","APOAPSIS":"421.201","NORAD_CAT_ID":"52088","BSTAR":"0.00029350000000","ARG_OF_PERICENTER":"30.9546","MEAN_MOTION":"15.48991979","RA_OF_ASC_NODE":"3.4167","CLASSIFICATION_TYPE":"U","MEAN_MOTION_DDOT":"0.0000000000000","INCLINATION":"53.2179","REF_FRAME":"TEME","ECCENTRICITY":"0.00022440","OBJECT_TYPE":"PAYLOAD","TIME_SYSTEM":"UTC","PERIOD":"92.964","EPHEMERIS_TYPE":"0","SEMIMAJOR_AXIS":"6797.811","OBJECT_NAME":"STARLINK-3537","PERIAPSIS":"418.150","FILE":"3663561","TLE_LINE1":"1 52088U 22029A   22323.60266008  .00015728  00000-0  29350-3 0  9993","LAUNCH_DATE":"2022-03-19","CENTER_NAME":"EARTH","MEAN_MOTION_DOT":"0.00015728","SITE":"AFETR"},{"SITE":"AFETR","CENTER_NAME":"EARTH","MEAN_MOTION_DOT":"-0.00001286","LAUNCH_DATE":"2022-03-19","TLE_LINE1":"1 52089U 22029B   22323.79118447 -.00001286  00000-0 -62713-4 0  9994","FILE":"3663561","PERIAPSIS":"538.430","OBJECT_NAME":"STARLINK-3722","EPHEMERIS_TYPE":"0","SEMIMAJOR_AXIS":"6917.859","PERIOD":"95.437","TIME_SYSTEM":"UTC","OBJECT_TYPE":"PAYLOAD","REF_FRAME":"TEME","ECCENTRICITY":"0.00018710","INCLINATION":"53.2180","MEAN_MOTION_DDOT":"0.0000000000000","CLASSIFICATION_TYPE":"U","RA_OF_ASC_NODE":"102.5971","ARG_OF_PERICENTER":"50.4937","MEAN_MOTION":"15.08846910","EPOCH":"2022-11-19T18:59:18.338208","APOAPSIS":"541.019","BSTAR":"-0.00006271300000","NORAD_CAT_ID":"52089","TLE_LINE2":"2 52089  53.2180 102.5971 0001871  50.4937 309.6221 15.08846910 38607","ELEMENT_SET_NO":"999","REV_AT_EPOCH":"3860","OBJECT_ID":"2022-029B","DECAY_DATE":null,"GP_ID":"218237186","MEAN_ELEMENT_THEORY":"SGP4","RCS_SIZE":"LARGE","MEAN_ANOMALY":"309.6221","COUNTRY_CODE":"US"},{"ARG_OF_PERICENTER":"51.1252","MEAN_MOTION":"15.08834486","CLASSIFICATION_TYPE":"U","RA_OF_ASC_NODE":"104.1381","MEAN_MOTION_DDOT":"0.0000000000000","MEAN_ANOMALY":"308.9894","COUNTRY_CODE":"US","REV_AT_EPOCH":"3855","OBJECT_ID":"2022-029C","DECAY_DATE":null,"MEAN_ELEMENT_THEORY":"SGP4","GP_ID":"218205917","RCS_SIZE":"LARGE","ELEMENT_SET_NO":"999","APOAPSIS":"540.956","EPOCH":"2022-11-19T10:46:28.691616","BSTAR":"0.00009091100000","NORAD_CAT_ID":"52090","TLE_LINE2":"2 52090  53.2170 104.1381 0001726  51.1252 308.9894 15.08834486 38555","TLE_LINE1":"1 52090U 22029C   22323.44894319  .00001159  00000-0  90911-4 0  9995","FILE":"3663316","LAUNCH_DATE":"2022-03-19","CENTER_NAME":"EARTH","MEAN_MOTION_DOT":"0.00001159","SITE":"AFETR","REF_FRAME":"TEME","ECCENTRICITY":"0.00017260","INCLINATION":"53.2170","TIME_SYSTEM":"UTC","OBJECT_TYPE":"PAYLOAD","EPHEMERIS_TYPE":"0","SEMIMAJOR_AXIS":"6917.897","PERIOD":"95.438","PERIAPSIS":"538.568","OBJECT_NAME":"STARLINK-3712"}];
